CCSDS_OMM_VERS = 2.0
CREATION_DATE  = 
ORIGINATOR     = 

OBJECT_NAME    = 1998-067XU
OBJECT_ID      = 1998-067XU
CENTER_NAME    = EARTH
REF_FRAME      = TEME
TIME_SYSTEM    = UTC
MEAN_ELEMENT_THEORY = SGP/SGP4

EPOCH          = 2026-01-30T01:14:59.265312
MEAN_MOTION    = 15.59570858
ECCENTRICITY   = .0002809
INCLINATION    = 51.6273
RA_OF_ASC_NODE = 261.1529
ARG_OF_PERICENTER = 150.0773
MEAN_ANOMALY   = 210.0381

EPHEMERIS_TYPE = 0
CLASSIFICATION_TYPE = U
NORAD_CAT_ID   = 66908
ELEMENT_SET_NO = 999
REV_AT_EPOCH   = 913
BSTAR          = .14337E-2
MEAN_MOTION_DOT = .117469E-2
MEAN_MOTION_DDOT = 0

CCSDS_OMM_VERS = 2.0
CREATION_DATE  = 
ORIGINATOR     = 

OBJECT_NAME    = SILVERSAT
OBJECT_ID      = 1998-067XV
CENTER_NAME    = EARTH
REF_FRAME      = TEME
TIME_SYSTEM    = UTC
MEAN_ELEMENT_THEORY = SGP/SGP4

EPOCH          = 2026-01-30T00:49:37.800192
MEAN_MOTION    = 15.60686081
ECCENTRICITY   = .0003357
INCLINATION    = 51.6282
RA_OF_ASC_NODE = 261.0363
ARG_OF_PERICENTER = 162.5330
MEAN_ANOMALY   = 197.5779

EPHEMERIS_TYPE = 0
CLASSIFICATION_TYPE = U
NORAD_CAT_ID   = 66909
ELEMENT_SET_NO = 999
REV_AT_EPOCH   = 913
BSTAR          = .14708E-2
MEAN_MOTION_DOT = .125926E-2
MEAN_MOTION_DDOT = 0

CCSDS_OMM_VERS = 2.0
CREATION_DATE  = 
ORIGINATOR     = 

OBJECT_NAME    = 1998-067XW
OBJECT_ID      = 1998-067XW
CENTER_NAME    = EARTH
REF_FRAME      = TEME
TIME_SYSTEM    = UTC
MEAN_ELEMENT_THEORY = SGP/SGP4

EPOCH          = 2026-01-30T01:01:03.948384
MEAN_MOTION    = 15.59690918
ECCENTRICITY   = .0001618
INCLINATION    = 51.6271
RA_OF_ASC_NODE = 261.0852
ARG_OF_PERICENTER = 149.8489
MEAN_ANOMALY   = 210.2597

EPHEMERIS_TYPE = 0
CLASSIFICATION_TYPE = U
NORAD_CAT_ID   = 66910
ELEMENT_SET_NO = 999
REV_AT_EPOCH   = 913
BSTAR          = .12689E-2
MEAN_MOTION_DOT = .104201E-2
MEAN_MOTION_DDOT = 0

CCSDS_OMM_VERS = 2.0
CREATION_DATE  = 
ORIGINATOR     = 

OBJECT_NAME    = 1998-067XX
OBJECT_ID      = 1998-067XX
CENTER_NAME    = EARTH
REF_FRAME      = TEME
TIME_SYSTEM    = UTC
MEAN_ELEMENT_THEORY = SGP/SGP4

EPOCH          = 2026-01-30T00:16:35.694336
MEAN_MOTION    = 15.61740265
ECCENTRICITY   = .0002421
INCLINATION    = 51.6259
RA_OF_ASC_NODE = 260.8786
ARG_OF_PERICENTER = 180.1985
MEAN_ANOMALY   = 179.9008

EPHEMERIS_TYPE = 0
CLASSIFICATION_TYPE = U
NORAD_CAT_ID   = 66911
ELEMENT_SET_NO = 999
REV_AT_EPOCH   = 912
BSTAR          = .14017E-2
MEAN_MOTION_DOT = .124951E-2
MEAN_MOTION_DDOT = 0

CCSDS_OMM_VERS = 2.0
CREATION_DATE  = 
ORIGINATOR     = 

OBJECT_NAME    = 1998-067XY
OBJECT_ID      = 1998-067XY
CENTER_NAME    = EARTH
REF_FRAME      = TEME
TIME_SYSTEM    = UTC
MEAN_ELEMENT_THEORY = SGP/SGP4

EPOCH          = 2026-01-30T00:35:36.024000
MEAN_MOTION    = 15.57293463
ECCENTRICITY   = .0002426
INCLINATION    = 51.6286
RA_OF_ASC_NODE = 261.7221
ARG_OF_PERICENTER = 121.2070
MEAN_ANOMALY   = 238.9160

EPHEMERIS_TYPE = 0
CLASSIFICATION_TYPE = U
NORAD_CAT_ID   = 66912
ELEMENT_SET_NO = 999
REV_AT_EPOCH   = 911
BSTAR          = .10441E-2
MEAN_MOTION_DOT = .77959E-3
MEAN_MOTION_DDOT = 0

